LEMUR-2-GREENBERG       
1 42837U 17042N   26068.46200528  .00019778  00000+0  72539-3 0  9997
2 42837  97.3781 249.8007 0009157   4.0119 356.1192 15.27971352473146
STARLINK-36526          
1 67508U 26012R   26068.40623108  .00017039  00000+0  62731-3 0  9994
2 67508  43.0032 315.5476 0001583 256.5628 103.5047 15.27578132  7729
